[
    {
        "Altitude(m)": 555994.3776660893,
        "Argument of Periapsis(deg)": 0.006622991110713501,
        "Eccentricity": 0.0,
        "Inclination(deg)": 53.0,
        "Latitude(deg)": -9.625274994881345,
        "Longitude(deg)": 101.52895483768023,
        "Mean Anomaly(deg)": 191.90979286757755,
        "RAAN(deg)": 14.990143368528019,
        "Satellite Name": "Starlink Shell 1 77",
        "Satellite Number": 77,
        "Semi-Major Axis(m)": 6931778.249405717,
        "Time(s)": 190
    },
    {
        "Altitude(m)": 556111.4828219663,
        "Argument of Periapsis(deg)": 0.0069715695902247375,
        "Eccentricity": 0.0,
        "Inclination(deg)": 53.0,
        "Latitude(deg)": -10.124534456971546,
        "Longitude(deg)": 101.87548013985172,
        "Mean Anomaly(deg)": 192.53662407113427,
        "RAAN(deg)": 14.989624598450542,
        "Satellite Name": "Starlink Shell 1 77",
        "Satellite Number": 77,
        "Semi-Major Axis(m)": 6931778.249405717,
        "Time(s)": 200
    },
    {
        "Altitude(m)": 556230.9540588149,
        "Argument of Periapsis(deg)": 0.007320148069735974,
        "Eccentricity": 0.0,
        "Inclination(deg)": 53.0,
        "Latitude(deg)": -10.62330745194229,
        "Longitude(deg)": 102.2231948041334,
        "Mean Anomaly(deg)": 193.16345527469102,
        "RAAN(deg)": 14.98910582837307,
        "Satellite Name": "Starlink Shell 1 77",
        "Satellite Number": 77,
        "Semi-Major Axis(m)": 6931778.249405717,
        "Time(s)": 210
    },
    {
        "Altitude(m)": 556352.7566371578,
        "Argument of Periapsis(deg)": 0.007668726549247212,
        "Eccentricity": 0.0,
        "Inclination(deg)": 53.0,
        "Latitude(deg)": -11.121568592130185,
        "Longitude(deg)": 102.5721616634626,
        "Mean Anomaly(deg)": 193.79028647824774,
        "RAAN(deg)": 14.988587058295598,
        "Satellite Name": "Starlink Shell 1 77",
        "Satellite Number": 77,
        "Semi-Major Axis(m)": 6931778.249405717,
        "Time(s)": 220
    },
    {
        "Altitude(m)": 556476.8546364378,
        "Argument of Periapsis(deg)": 0.00801730502875845,
        "Eccentricity": 0.0,
        "Inclination(deg)": 53.0,
        "Latitude(deg)": -11.619292229230416,
        "Longitude(deg)": 102.92244408795794,
        "Mean Anomaly(deg)": 194.41711768180446,
        "RAAN(deg)": 14.988068288218125,
        "Satellite Name": "Starlink Shell 1 77",
        "Satellite Number": 77,
        "Semi-Major Axis(m)": 6931778.249405717,
        "Time(s)": 230
    },
    {
        "Altitude(m)": 556603.2109701841,
        "Argument of Periapsis(deg)": 0.008365883508269684,
        "Eccentricity": 0.0,
        "Inclination(deg)": 53.0,
        "Latitude(deg)": -12.116452439989672,
        "Longitude(deg)": 103.2741065156559,
        "Mean Anomaly(deg)": 195.04394888536115,
        "RAAN(deg)": 14.98754951814065,
        "Satellite Name": "Starlink Shell 1 77",
        "Satellite Number": 77,
        "Semi-Major Axis(m)": 6931778.249405717,
        "Time(s)": 240
    },
    {
        "Altitude(m)": 556731.7874017687,
        "Argument of Periapsis(deg)": 0.008714461987780921,
        "Eccentricity": 0.0,
        "Inclination(deg)": 53.0,
        "Latitude(deg)": -12.613023011643948,
        "Longitude(deg)": 103.62721347044268,
        "Mean Anomaly(deg)": 195.6707800889179,
        "RAAN(deg)": 14.987030748063177,
        "Satellite Name": "Starlink Shell 1 77",
        "Satellite Number": 77,
        "Semi-Major Axis(m)": 6931778.249405717,
        "Time(s)": 250
    },
    {
        "Altitude(m)": 556862.5445607208,
        "Argument of Periapsis(deg)": 0.009063040467292158,
        "Eccentricity": 0.0,
        "Inclination(deg)": 53.0,
        "Latitude(deg)": -13.108977427088531,
        "Longitude(deg)": 103.98183009291927,
        "Mean Anomaly(deg)": 196.2976112924746,
        "RAAN(deg)": 14.986511977985707,
        "Satellite Name": "Starlink Shell 1 77",
        "Satellite Number": 77,
        "Semi-Major Axis(m)": 6931778.249405717,
        "Time(s)": 260
    },
    {
        "Altitude(m)": 556995.441959598,
        "Argument of Periapsis(deg)": 0.009411618946803396,
        "Eccentricity": 0.0,
        "Inclination(deg)": 53.0,
        "Latitude(deg)": -13.604288849768738,
        "Longitude(deg)": 104.33802267131806,
        "Mean Anomaly(deg)": 196.9244424960313,
        "RAAN(deg)": 14.985993207908233,
        "Satellite Name": "Starlink Shell 1 77",
        "Satellite Number": 77,
        "Semi-Major Axis(m)": 6931778.249405717,
        "Time(s)": 270
    },
    {
        "Altitude(m)": 557130.4380114315,
        "Argument of Periapsis(deg)": 0.009760197426314633,
        "Eccentricity": 0.0,
        "Inclination(deg)": 53.0,
        "Latitude(deg)": -14.098930108277901,
        "Longitude(deg)": 104.6958576595873,
        "Mean Anomaly(deg)": 197.55127369958802,
        "RAAN(deg)": 14.98547443783076,
        "Satellite Name": "Starlink Shell 1 77",
        "Satellite Number": 77,
        "Semi-Major Axis(m)": 6931778.249405717,
        "Time(s)": 280
    },
    {
        "Altitude(m)": 557267.4900476842,
        "Argument of Periapsis(deg)": 0.01010877590582587,
        "Eccentricity": 0.0,
        "Inclination(deg)": 53.0,
        "Latitude(deg)": -14.592873680650792,
        "Longitude(deg)": 105.05540220837486,
        "Mean Anomaly(deg)": 198.1781049031447,
        "RAAN(deg)": 14.98495566775329,
        "Satellite Name": "Starlink Shell 1 77",
        "Satellite Number": 77,
        "Semi-Major Axis(m)": 6931778.249405717,
        "Time(s)": 290
    },
    {
        "Altitude(m)": 557406.5543367619,
        "Argument of Periapsis(deg)": 0.010457354385337106,
        "Eccentricity": 0.0,
        "Inclination(deg)": 53.0,
        "Latitude(deg)": -15.086091678340825,
        "Longitude(deg)": 105.41672469602464,
        "Mean Anomaly(deg)": 198.8049361067015,
        "RAAN(deg)": 14.984436897675813,
        "Satellite Name": "Starlink Shell 1 77",
        "Satellite Number": 77,
        "Semi-Major Axis(m)": 6931778.249405717,
        "Time(s)": 300
    },
    {
        "Altitude(m)": 557547.5861030378,
        "Argument of Periapsis(deg)": 0.010805932864848343,
        "Eccentricity": 0.0,
        "Inclination(deg)": 53.0,
        "Latitude(deg)": -15.57855582986691,
        "Longitude(deg)": 105.77989374669451,
        "Mean Anomaly(deg)": 199.43176731025818,
        "RAAN(deg)": 14.983918127598342,
        "Satellite Name": "Starlink Shell 1 77",
        "Satellite Number": 77,
        "Semi-Major Axis(m)": 6931778.249405717,
        "Time(s)": 310
    },
    {
        "Altitude(m)": 557690.5395463749,
        "Argument of Periapsis(deg)": 0.01115451134435958,
        "Eccentricity": 0.0,
        "Inclination(deg)": 53.0,
        "Latitude(deg)": -16.07023746411928,
        "Longitude(deg)": 106.14497876132113,
        "Mean Anomaly(deg)": 200.05859851381487,
        "RAAN(deg)": 14.98339935752087,
        "Satellite Name": "Starlink Shell 1 77",
        "Satellite Number": 77,
        "Semi-Major Axis(m)": 6931778.249405717,
        "Time(s)": 320
    },
    {
        "Altitude(m)": 557835.3678622002,
        "Argument of Periapsis(deg)": 0.011503089823870818,
        "Eccentricity": 0.0,
        "Inclination(deg)": 53.0,
        "Latitude(deg)": -16.56110749331188,
        "Longitude(deg)": 106.5120504485364,
        "Mean Anomaly(deg)": 200.68542971737162,
        "RAAN(deg)": 14.982880587443397,
        "Satellite Name": "Starlink Shell 1 77",
        "Satellite Number": 77,
        "Semi-Major Axis(m)": 6931778.249405717,
        "Time(s)": 330
    },
    {
        "Altitude(m)": 557982.0232620027,
        "Argument of Periapsis(deg)": 0.011851668303382053,
        "Eccentricity": 0.0,
        "Inclination(deg)": 53.0,
        "Latitude(deg)": -17.05113639556726,
        "Longitude(deg)": 106.88117984263705,
        "Mean Anomaly(deg)": 201.3122609209283,
        "RAAN(deg)": 14.982361817365923,
        "Satellite Name": "Starlink Shell 1 77",
        "Satellite Number": 77,
        "Semi-Major Axis(m)": 6931778.249405717,
        "Time(s)": 340
    },
    {
        "Altitude(m)": 558130.4569943548,
        "Argument of Periapsis(deg)": 0.012200246782893292,
        "Eccentricity": 0.0,
        "Inclination(deg)": 53.0,
        "Latitude(deg)": -17.54029419712441,
        "Longitude(deg)": 107.25243883432358,
        "Mean Anomaly(deg)": 201.93909212448503,
        "RAAN(deg)": 14.981843047288448,
        "Satellite Name": "Starlink Shell 1 77",
        "Satellite Number": 77,
        "Semi-Major Axis(m)": 6931778.249405717,
        "Time(s)": 350
    },
    {
        "Altitude(m)": 558280.6193664004,
        "Argument of Periapsis(deg)": 0.012548825262404526,
        "Eccentricity": 0.0,
        "Inclination(deg)": 53.0,
        "Latitude(deg)": -18.028550454156157,
        "Longitude(deg)": 107.62590070130379,
        "Mean Anomaly(deg)": 202.56592332804178,
        "RAAN(deg)": 14.981324277210978,
        "Satellite Name": "Starlink Shell 1 77",
        "Satellite Number": 77,
        "Semi-Major Axis(m)": 6931778.249405717,
        "Time(s)": 360
    },
    {
        "Altitude(m)": 558432.4597657733,
        "Argument of Periapsis(deg)": 0.012897403741915765,
        "Eccentricity": 0.0,
        "Inclination(deg)": 53.0,
        "Latitude(deg)": -18.515874234183965,
        "Longitude(deg)": 108.00163912585238,
        "Mean Anomaly(deg)": 203.19275453159847,
        "RAAN(deg)": 14.980805507133505,
        "Satellite Name": "Starlink Shell 1 77",
        "Satellite Number": 77,
        "Semi-Major Axis(m)": 6931778.249405717,
        "Time(s)": 370
    }
]